SOYUZ-MS 25             
1 59294U 24055A   24250.52672295  .00047651  00000+0  87835-3 0  9992
2 59294  51.6407 272.4053 0007289 316.6156 140.5680 15.48632070471003
CURTIS                  
1 59507U 98067WG  24250.43470343  .00676237  20517-3  16224-2 0  9993
2 59507  51.6158 255.3291 0006506   6.4653 353.6438 15.95889377 23270
1998-067WJ              
1 59559U 98067WJ  24250.43089563  .00698055  21772-3  17101-2 0  9991
2 59559  51.6212 256.8599 0006905  44.6435 315.5128 15.95500457 22125
1998-067WL              
1 59561U 98067WL  24250.44475164  .00103618  00000+0  98922-3 0  9995
2 59561  51.6295 265.2890 0002249  15.9025 344.2041 15.65929113 21987
BURSTCUBE               
1 59562U 98067WM  24250.49733844  .00598329  15579-3  16292-2 0  9990
2 59562  51.6216 256.5635 0007651  37.4644 322.6895 15.93517249 22116
SNOOPI                  
1 59563U 98067WN  24250.52006147  .00422092  00000+0  16835-2 0  9999
2 59563  51.6257 259.0090 0006999  33.4675 326.6770 15.84902961 22080
SHENZHOU-18 (SZ-18)     
1 59591U 24078A   24250.50223210  .00072542  00000+0  76389-3 0  9993
2 59591  41.4694 307.4965 0001575  25.9430 334.1489 15.63305428 20296
SZ-17 MODULE            
1 59624U 23164C   24250.55362278  .00095120  00000+0  62422-3 0  9998
2 59624  41.4745 301.6246 0008407 105.9098 254.2673 15.74618351 20323
PROGRESS-MS 27          
1 59913U 24103A   24250.52672295  .00047651  00000+0  87835-3 0  9994
2 59913  51.6407 272.4053 0007289 316.6156 140.5680 15.48632070471001
STARLINER CFT-1         
1 59968U 24109A   24250.52672295  .00047651  00000+0  87835-3 0  9990
2 59968  51.6407 272.4053 0007289 316.6156 140.5680 15.48632070471001
CYGNUS NG-21            
1 60378U 24139A   24250.52672295  .00047651  00000+0  87835-3 0  9990
2 60378  51.6407 272.4053 0007289 316.6156 140.5680 15.48632070471008
PROGRESS-MS 28          
1 60450U 24145A   24249.47698401  .00023670  00000+0  42938-3 0  9997
2 60450  51.6377 277.5969 0011165 322.8687  37.1529 15.49411267471000
BINAR-4                 
1 60952U 98067WS  24250.56566665  .00162874  00000+0  26075-2 0  9999
2 60952  51.6368 272.1174 0012960 333.0169  27.0146 15.51950973  1275
COSMOGIRLSAT            
1 60953U 98067WT  24250.56619230  .00116695  00000+0  19090-2 0  9996
2 60953  51.6372 272.1208 0013950 330.2128  29.8066 15.51525788  1276
SAKURA                  
1 60954U 98067WU  24250.56569223  .00130974  00000+0  21225-2 0  9992
2 60954  51.6372 272.1174 0013900 331.0404  28.9813 15.51727836  1278
1998-067WV              
1 60955U 98067WV  24250.56240981  .00236971  00000+0  36027-2 0  9990
2 60955  51.6367 272.0957 0013092 333.8011  26.2316 15.53101956  1277
BINAR-2                 
1 60956U 98067WW  24250.56506761  .00152469  00000+0  24326-2 0  9990
2 60956  51.6362 272.1130 0013062 332.9658  27.0650 15.52086451  1261
BINAR-3                 
1 60957U 98067WX  24250.56499319  .00171540  00000+0  27191-2 0  9995
2 60957  51.6369 272.1125 0013127 333.6439  26.3881 15.52191118  3256
1998-067WY              
1 60958U 98067WY  24250.56640302  .00109713  00000+0  18024-2 0  9994
2 60958  51.6373 272.1225 0013841 329.7167  30.3022 15.51440550  1267
